0 DELTA 4 R/B
1 38834U 12053B   13282.71684193 -.00000062  00000-0  00000+0 0  1600
2 38834 054.5824 335.0625 0280879 043.2563 010.7153 01.89444606  7014
0 DELTA 4 R/B
1 38834U 12053B   13285.40351203 -.00000069  00000-0  00000+0 0  1610
2 38834 054.5818 334.9650 0280876 043.3050 043.0251 01.89444793  7062
0 DELTA 4 R/B
1 38834U 12053B   13287.86178733 -.00000072  00000-0  00000+0 0  1622
2 38834 054.5811 334.8759 0280893 043.3532 279.5680 01.89444910  7117
0 DELTA 4 R/B
1 38834U 12053B   13293.29150936 -.00000085  00000-0  00000+0 0  1636
2 38834 054.5794 334.6793 0280974 043.4550 022.6475 01.89444903  7216
0 DELTA 4 R/B
1 38834U 12053B   13295.47624021 -.00000088  00000-0  00000+0 0  1643
2 38834 054.5788 334.6000 0281020 043.5046 072.6312 01.89444842  7255
